{"type": "FeatureCollection", "features": [ {"type": "Feature", "properties": {"norad_id": 42987, "name": "SKYSAT-C11", "group": "resource", "lat": 17.421385045849433, "lon": 127.26518798118572, "alt_km": 424.053581336324, "timestamp": "2025-12-17T23:38:06.520634+00:00", "meta": {"OBJECT_NAME": "SKYSAT-C11", "OBJECT_ID": "2017-068A", "EPOCH": "2025-12-17T15:48:02.558880", "MEAN_MOTION": 15.47652121, "ECCENTRICITY": 0.00011602, "INCLINATION": 97.4137, "RA_OF_ASC_NODE": 129.2724, "ARG_OF_PERICENTER": 101.1537, "MEAN_ANOMALY": 258.9843, "EPHEMERIS_TYPE": 0, "CLASSIFICATION_TYPE": "U", "NORAD_CAT_ID": 42987, "ELEMENT_SET_NO": 999, "REV_AT_EPOCH": 45507, "BSTAR": 0.0003559198, "MEAN_MOTION_DOT": 0.00018302, "MEAN_MOTION_DDOT": 0}, "tle": {"line1": "1 42987U 17068A   25351.65836295  .00018302  00000+0  35592-3 0  9992", "line2": "2 42987  97.4137 129.2724 0001160 101.1537 258.9843 15.47652121455070"}}, "geometry": {"type": "Point", "coordinates": [127.26518798118572, 17.421385045849433]}}, {"type": "Feature", "properties": {"norad_id": 42988, "name": "SKYSAT-C10", "group": "resource", "lat": 12.618403349001188, "lon": -55.47671720612111, "alt_km": 469.9057270169733, "timestamp": "2025-12-17T23:38:06.520645+00:00", "meta": {"OBJECT_NAME": "SKYSAT-C10", "OBJECT_ID": "2017-068B", "EPOCH": "2025-12-17T15:04:16.856832", "MEAN_MOTION": 15.32166002, "ECCENTRICITY": 0.00054297, "INCLINATION": 97.4256, "RA_OF_ASC_NODE": 122.4924, "ARG_OF_PERICENTER": 89.9469, "MEAN_ANOMALY": 270.2395, "EPHEMERIS_TYPE": 0, "CLASSIFICATION_TYPE": "U", "NORAD_CAT_ID": 42988, "ELEMENT_SET_NO": 999, "REV_AT_EPOCH": 45454, "BSTAR": 0.00029595153, "MEAN_MOTION_DOT": 9.118e-05, "MEAN_MOTION_DDOT": 0}, "tle": {"line1": "1 42988U 17068B   25351.62797288  .00009118  00000+0  29595-3 0  9999", "line2": "2 42988  97.4256 122.4924 0005429  89.9469 270.2395 15.32166002454541"}}, "geometry": {"type": "Point", "coordinates": [-55.47671720612111, 12.618403349001188]}}, {"type": "Feature", "properties": {"norad_id": 42989, "name": "SKYSAT-C9", "group": "resource", "lat": 82.57574468963512, "lon": 31.708896461072847, "alt_km": 443.1007003929908, "timestamp": "2025-12-17T23:38:06.520655+00:00", "meta": {"OBJECT_NAME": "SKYSAT-C9", "OBJECT_ID": "2017-068C", "EPOCH": "2025-12-17T07:36:42.694848", "MEAN_MOTION": 15.36166959, "ECCENTRICITY": 0.00106058, "INCLINATION": 97.4187, "RA_OF_ASC_NODE": 121.607, "ARG_OF_PERICENTER": 73.0868, "MEAN_ANOMALY": 287.1538, "EPHEMERIS_TYPE": 0, "CLASSIFICATION_TYPE": "U", "NORAD_CAT_ID": 42989, "ELEMENT_SET_NO": 999, "REV_AT_EPOCH": 45478, "BSTAR": 0.0003240205, "MEAN_MOTION_DOT": 0.00011361, "MEAN_MOTION_DDOT": 0}, "tle": {"line1": "1 42989U 17068C   25351.31716082  .00011361  00000+0  32402-3 0  9993", "line2": "2 42989  97.4187 121.6070 0010605  73.0868 287.1538 15.36166959454784"}}, "geometry": {"type": "Point", "coordinates": [31.708896461072847, 82.57574468963512]}}, {"type": "Feature", "properties": {"norad_id": 42990, "name": "SKYSAT-C8", "group": "resource", "lat": 1.547749891632126, "lon": 121.80562090429838, "alt_km": 468.9851311707598, "timestamp": "2025-12-17T23:38:06.520665+00:00", "meta": {"OBJECT_NAME": "SKYSAT-C8", "OBJECT_ID": "2017-068D", "EPOCH": "2025-12-17T07:57:46.624896", "MEAN_MOTION": 15.33021868, "ECCENTRICITY": 0.00012634, "INCLINATION": 97.4278, "RA_OF_ASC_NODE": 121.3518, "ARG_OF_PERICENTER": 326.0348, "MEAN_ANOMALY": 34.0813, "EPHEMERIS_TYPE": 0, "CLASSIFICATION_TYPE": "U", "NORAD_CAT_ID": 42990, "ELEMENT_SET_NO": 999, "REV_AT_EPOCH": 45441, "BSTAR": 0.00030707047, "MEAN_MOTION_DOT": 9.718e-05, "MEAN_MOTION_DDOT": 0}, "tle": {"line1": "1 42990U 17068D   25351.33178964  .00009718  00000+0  30707-3 0  9997", "line2": "2 42990  97.4278 121.3518 0001263 326.0348  34.0813 15.33021868454416"}}, "geometry": {"type": "Point", "coordinates": [121.80562090429838, 1.547749891632126]}}, {"type": "Feature", "properties": {"norad_id": 42991, "name": "SKYSAT-C7", "group": "resource", "lat": -25.75559574473446, "lon": -60.56468005501647, "alt_km": 479.18806477342514, "timestamp": "2025-12-17T23:38:06.520675+00:00", "meta": {"OBJECT_NAME": "SKYSAT-C7", "OBJECT_ID": "2017-068E", "EPOCH": "2025-12-17T08:38:07.633248", "MEAN_MOTION": 15.32424301, "ECCENTRICITY": 0.00073721, "INCLINATION": 97.4285, "RA_OF_ASC_NODE": 122.4173, "ARG_OF_PERICENTER": 42.5668, "MEAN_ANOMALY": 317.6144, "EPHEMERIS_TYPE": 0, "CLASSIFICATION_TYPE": "U", "NORAD_CAT_ID": 42991, "ELEMENT_SET_NO": 999, "REV_AT_EPOCH": 45448, "BSTAR": 0.00029688975, "MEAN_MOTION_DOT": 9.225e-05, "MEAN_MOTION_DDOT": 0}, "tle": {"line1": "1 42991U 17068E   25351.35981057  .00009225  00000+0  29689-3 0  9995", "line2": "2 42991  97.4285 122.4173 0007372  42.5668 317.6144 15.32424301454488"}}, "geometry": {"type": "Point", "coordinates": [-60.56468005501647, -25.75559574473446]}}, {"type": "Feature", "properties": {"norad_id": 42992, "name": "SKYSAT-C6", "group": "resource", "lat": -52.53303480945027, "lon": 133.2851107977692, "alt_km": 479.8579534190094, "timestamp": "2025-12-17T23:38:06.520685+00:00", "meta": {"OBJECT_NAME": "SKYSAT-C6", "OBJECT_ID": "2017-068F", "EPOCH": "2025-12-17T08:11:12.621984", "MEAN_MOTION": 15.3158374, "ECCENTRICITY": 0.00050921, "INCLINATION": 97.4319, "RA_OF_ASC_NODE": 122.8333, "ARG_OF_PERICENTER": 69.9436, "MEAN_ANOMALY": 290.2353, "EPHEMERIS_TYPE": 0, "CLASSIFICATION_TYPE": "U", "NORAD_CAT_ID": 42992, "ELEMENT_SET_NO": 999, "REV_AT_EPOCH": 45446, "BSTAR": 0.00029339783, "MEAN_MOTION_DOT": 8.874e-05, "MEAN_MOTION_DDOT": 0}, "tle": {"line1": "1 42992U 17068F   25351.34111831  .00008874  00000+0  29340-3 0  9993", "line2": "2 42992  97.4319 122.8333 0005092  69.9436 290.2353 15.31583740454460"}}, "geometry": {"type": "Point", "coordinates": [133.2851107977692, -52.53303480945027]}}, {"type": "Feature", "properties": {"norad_id": 43111, "name": "CARTOSAT-2F", "group": "resource", "lat": -2.694597780355278, "lon": -130.81391729811776, "alt_km": 510.6403586640927, "timestamp": "2025-12-17T23:38:06.520695+00:00", "meta": {"OBJECT_NAME": "CARTOSAT-2F", "OBJECT_ID": "2018-004A", "EPOCH": "2025-12-17T14:55:50.861280", "MEAN_MOTION": 15.19326984, "ECCENTRICITY": 0.00013336, "INCLINATION": 97.4319, "RA_OF_ASC_NODE": 49.1812, "ARG_OF_PERICENTER": 139.4118, "MEAN_ANOMALY": 220.7216, "EPHEMERIS_TYPE": 0, "CLASSIFICATION_TYPE": "U", "NORAD_CAT_ID": 43111, "ELEMENT_SET_NO": 999, "REV_AT_EPOCH": 43976, "BSTAR": 0.00022574921, "MEAN_MOTION_DOT": 4.701e-05, "MEAN_MOTION_DDOT": 0}, "tle": {"line1": "1 43111U 18004A   25351.62211645  .00004701  00000+0  22575-3 0  9991", "line2": "2 43111  97.4319  49.1812 0001333 139.4118 220.7216 15.19326984439764"}}, "geometry": {"type": "Point", "coordinates": [-130.81391729811776, -2.694597780355278]}}, {"type": "Feature", "properties": {"norad_id": 43259, "name": "GAOFEN-1 02", "group": "resource", "lat": -40.35208237039472, "lon": -137.1566804382713, "alt_km": 645.8528442222405, "timestamp": "2025-12-17T23:38:06.520705+00:00", "meta": {"OBJECT_NAME": "GAOFEN-1 02", "OBJECT_ID": "2018-031A", "EPOCH": "2025-12-17T16:07:56.025408", "MEAN_MOTION": 14.76426695, "ECCENTRICITY": 0.00020386, "INCLINATION": 98.0807, "RA_OF_ASC_NODE": 49.4636, "ARG_OF_PERICENTER": 198.5219, "MEAN_ANOMALY": 161.5916, "EPHEMERIS_TYPE": 0, "CLASSIFICATION_TYPE": "U", "NORAD_CAT_ID": 43259, "ELEMENT_SET_NO": 999, "REV_AT_EPOCH": 41591, "BSTAR": 0.0001443483, "MEAN_MOTION_DOT": 9.52e-06, "MEAN_MOTION_DDOT": 0}, "tle": {"line1": "1 43259U 18031A   25351.67217622  .00000952  00000+0  14435-3 0  9990", "line2": "2 43259  98.0807  49.4636 0002038 198.5219 161.5916 14.76426695415916"}}, "geometry": {"type": "Point", "coordinates": [-137.1566804382713, -40.35208237039472]}}, {"type": "Feature", "properties": {"norad_id": 43260, "name": "GAOFEN-1 03", "group": "resource", "lat": -23.53612681982178, "lon": 53.19952635272153, "alt_km": 645.1127412224705, "timestamp": "2025-12-17T23:38:06.520715+00:00", "meta": {"OBJECT_NAME": "GAOFEN-1 03", "OBJECT_ID": "2018-031B", "EPOCH": "2025-12-17T15:36:36.313920", "MEAN_MOTION": 14.76447044, "ECCENTRICITY": 0.00017638, "INCLINATION": 98.0793, "RA_OF_ASC_NODE": 49.3179, "ARG_OF_PERICENTER": 297.3125, "MEAN_ANOMALY": 62.7905, "EPHEMERIS_TYPE": 0, "CLASSIFICATION_TYPE": "U", "NORAD_CAT_ID": 43260, "ELEMENT_SET_NO": 999, "REV_AT_EPOCH": 41590, "BSTAR": 0.00011949322, "MEAN_MOTION_DOT": 7.79e-06, "MEAN_MOTION_DDOT": 0}, "tle": {"line1": "1 43260U 18031B   25351.65042030  .00000779  00000+0  11949-3 0  9993", "line2": "2 43260  98.0793  49.3179 0001763 297.3125  62.7905 14.76447044415901"}}, "geometry": {"type": "Point", "coordinates": [53.19952635272153, -23.53612681982178]}}, {"type": "Feature", "properties": {"norad_id": 43262, "name": "GAOFEN-1 04", "group": "resource", "lat": 72.13308844103399, "lon": -104.02611345596303, "alt_km": 633.1540461896329, "timestamp": "2025-12-17T23:38:06.520726+00:00", "meta": {"OBJECT_NAME": "GAOFEN-1 04", "OBJECT_ID": "2018-031D", "EPOCH": "2025-12-17T15:01:28.551360", "MEAN_MOTION": 14.76460861, "ECCENTRICITY": 8.847e-05, "INCLINATION": 98.0808, "RA_OF_ASC_NODE": 49.4638, "ARG_OF_PERICENTER": 59.0323, "MEAN_ANOMALY": 301.0974, "EPHEMERIS_TYPE": 0, "CLASSIFICATION_TYPE": "U", "NORAD_CAT_ID": 43262, "ELEMENT_SET_NO": 999, "REV_AT_EPOCH": 41589, "BSTAR": 0.00011580892, "MEAN_MOTION_DOT": 7.54e-06, "MEAN_MOTION_DDOT": 0}, "tle": {"line1": "1 43262U 18031D   25351.62602490  .00000754  00000+0  11581-3 0  9999", "line2": "2 43262  98.0808  49.4638 0000884  59.0323 301.0974 14.76460861415892"}}, "geometry": {"type": "Point", "coordinates": [-104.02611345596303, 72.13308844103399]}}]}